ONEWEB-0556             
1 55798U 23029C   26186.26649488  .00000042  00000+0  71031-4 0  9991
2 55798  87.9182 270.8649 0001161  98.1373 261.9893 13.20769701163539
ONEWEB-0562             
1 55799U 23029D   26186.25304053  .00000105  00000+0  22518-3 0  9992
2 55799  87.9183 270.8485 0001654  76.0111 284.1207 13.20772109163533
ONEWEB-0563             
1 55800U 23029E   26186.24797949  .00000069  00000+0  13819-3 0  9997
2 55800  87.9182 270.8799 0001975 106.3841 253.7510 13.20773682163521
ONEWEB-0564             
1 55801U 23029F   26186.24126293  .00000072  00000+0  14581-3 0  9997
2 55801  87.9184 270.8549 0001878  89.0117 271.1232 13.20772519163536
ONEWEB-0638             
1 55802U 23029G   26186.28075634  .00000280  00000+0  71973-3 0  9993
2 55802  87.8964 286.1448 0001519  92.0683 268.0621 13.14502671161778
ONEWEB-0639             
1 55803U 23029H   26186.30375193  .00000102  00000+0  22168-3 0  9995
2 55803  87.9184 301.3675 0002202 126.9068 233.2267 13.19725466161291
ONEWEB-0640             
1 55804U 23029J   26186.29026122 -.00000019  00000+0 -86696-4 0  9995
2 55804  87.8963 286.1339 0001321 109.0795 251.0478 13.14502033161798
ONEWEB-0641             
1 55805U 23029K   26186.29901944  .00000092  00000+0  19636-3 0  9998
2 55805  87.9191 301.3591 0001987 105.7809 254.3543 13.19725497161302
ONEWEB-0642             
1 55806U 23029L   26186.29429243  .00000090  00000+0  19148-3 0  9992
2 55806  87.9185 301.3707 0002377 120.9392 239.1974 13.19725717161297
ONEWEB-0643             
1 55807U 23029M   26186.26013847  .00000285  00000+0  73499-3 0  9994
2 55807  87.8961 286.1272 0002462 113.8604 246.2784 13.14501762161765
ONEWEB-0644             
1 55808U 23029N   26186.28955318  .00000080  00000+0  16828-3 0  9991
2 55808  87.9182 301.3726 0002135 109.8071 250.3292 13.19725103161296
ONEWEB-0645             
1 55809U 23029P   26186.31166401  .00000063  00000+0  12619-3 0  9998
2 55809  87.9183 301.3651 0001730 113.8600 246.2715 13.19725554161292
ONEWEB-0646             
1 55810U 23029Q   26186.32903663  .00000131  00000+0  29510-3 0  9994
2 55810  87.9184 301.3619 0002120 108.5829 251.5534 13.19726813161283
ONEWEB-0648             
1 55811U 23029R   26186.30453724 -.00000115  00000+0 -34546-3 0  9990
2 55811  87.8973 286.0938 0001967 127.6418 232.4891 13.14503223161777
ONEWEB-0649             
1 55812U 23029S   26186.27848539  .00000146  00000+0  33210-3 0  9998
2 55812  87.9181 301.3699 0001867 108.7814 251.3522 13.19725896161312
ONEWEB-0650             
1 55813U 23029T   26186.34956367  .00000136  00000+0  30844-3 0  9995
2 55813  87.9183 301.3583 0002217 116.7993 243.3367 13.19725663161291
ONEWEB-0652             
1 55814U 23029U   26186.28550632  .00000097  00000+0  22830-3 0  9996
2 55814  87.8972 286.1042 0002047  95.8642 264.2721 13.14502362161746
ONEWEB-0653             
1 55815U 23029V   26186.26964248  .00000209  00000+0  52844-3 0  9990
2 55815  87.8970 286.1056 0001911  99.1009 261.0337 13.14501911161773
ONEWEB-0654             
1 55816U 23029W   26186.34100226  .00000283  00000+0  72871-3 0  9992
2 55816  87.8971 286.0874 0001927  89.8682 270.2668 13.14501594161802
ONEWEB-0656             
1 55817U 23029X   26186.23450282  .00000026  00000+0  31040-4 0  9990
2 55817  87.9195 270.8342 0002051  86.9806 273.1562 13.20769679163532
ONEWEB-0657             
1 55818U 23029Y   26186.34483721  .00000109  00000+0  24107-3 0  9994
2 55818  87.9184 301.3578 0002547  91.1845 268.9580 13.19726093161309
ONEWEB-0658             
1 55819U 23029Z   26186.34010010  .00000107  00000+0  23462-3 0  9993
2 55819  87.9193 301.3360 0002139 111.0416 249.0945 13.19725955161314
ONEWEB-0660             
1 55820U 23029AA  26186.31879788 -.00000130  00000+0 -38456-3 0  9994
2 55820  87.8982 286.0869 0001736 107.7061 252.4259 13.14502349161786
ONEWEB-0661             
1 55821U 23029AB  26186.27758219  .00000214  00000+0  54311-3 0  9994
2 55821  87.8964 286.1367 0001687 103.7448 256.3870 13.14502499161767
ONEWEB-0662             
1 55822U 23029AC  26186.31246553 -.00000155  00000+0 -45236-3 0  9995
2 55822  87.8960 286.1355 0001766 107.6550 252.4773 13.14502083161810
ONEWEB-0663             
1 55823U 23029AD  26186.26687866  .00000041  00000+0  68978-4 0  9997
2 55823  87.9196 270.8987 0001921 111.6803 248.4535 13.20870763163535
ONEWEB-0664             
1 55824U 23029AE  26186.29681916  .00000057  00000+0  10936-3 0  9998
2 55824  87.9180 270.8723 0001546  96.5899 263.5411 13.20771426163533
ONEWEB-0665             
1 55825U 23029AF  26186.27440843  .00000259  00000+0  66541-3 0  9996
2 55825  87.8964 286.1176 0001895 111.9904 248.1427 13.14502484161781
ONEWEB-0666             
1 55826U 23029AG  26186.21431690  .00000008  00000+0 -12288-4 0  9994
2 55826  87.9184 270.8786 0002652  91.0076 269.1361 13.20772167163533
ONEWEB-0667             
1 55827U 23029AH  26186.28502388  .00000011  00000+0 -36741-5 0  9990
2 55827  87.9200 270.8251 0001878 101.6529 258.4816 13.20772527163536
