OBJECT_NAME,OBJECT_ID,EPOCH,MEAN_MOTION,ECCENTRICITY,INCLINATION,RA_OF_ASC_NODE,ARG_OF_PERICENTER,MEAN_ANOMALY,EPHEMERIS_TYPE,CLASSIFICATION_TYPE,NORAD_CAT_ID,ELEMENT_SET_NO,REV_AT_EPOCH,BSTAR,MEAN_MOTION_DOT,MEAN_MOTION_DDOT
ONEWEB-0556,2023-029C,2026-07-05T06:23:45.157632,13.20769701,.00011616,87.9182,270.8649,98.1373,261.9893,0,U,55798,999,16353,.71031438E-4,.42E-6,0
ONEWEB-0562,2023-029D,2026-07-05T06:04:22.701792,13.20772109,.00016547,87.9183,270.8485,76.0111,284.1207,0,U,55799,999,16353,.22518006E-3,.105E-5,0
ONEWEB-0563,2023-029E,2026-07-05T05:57:05.427936,13.20773682,.00019757,87.9182,270.8799,106.3841,253.7510,0,U,55800,999,16352,.13819382E-3,.69E-6,0
ONEWEB-0564,2023-029F,2026-07-05T05:47:25.117152,13.20772519,.00018785,87.9184,270.8549,89.0117,271.1232,0,U,55801,999,16353,.14581099E-3,.72E-6,0
ONEWEB-0638,2023-029G,2026-07-05T06:44:17.347776,13.14502671,.00015198,87.8964,286.1448,92.0683,268.0621,0,U,55802,999,16177,.71973222E-3,.28E-5,0
ONEWEB-0639,2023-029H,2026-07-05T07:17:24.166752,13.19725466,.00022027,87.9184,301.3675,126.9068,233.2267,0,U,55803,999,16129,.22167788E-3,.102E-5,0
ONEWEB-0640,2023-029J,2026-07-05T06:57:58.569408,13.14502033,.00013214,87.8963,286.1339,109.0795,251.0478,0,U,55804,999,16179,-.86696104E-4,-.19E-6,0
ONEWEB-0641,2023-029K,2026-07-05T07:10:35.279616,13.19725497,.0001987,87.9191,301.3591,105.7809,254.3543,0,U,55805,999,16130,.19636151E-3,.92E-6,0
ONEWEB-0642,2023-029L,2026-07-05T07:03:46.865952,13.19725717,.00023773,87.9185,301.3707,120.9392,239.1974,0,U,55806,999,16129,.19147828E-3,.9E-6,0
ONEWEB-0643,2023-029M,2026-07-05T06:14:35.963808,13.14501762,.00024629,87.8961,286.1272,113.8604,246.2784,0,U,55807,999,16176,.73499448E-3,.285E-5,0
ONEWEB-0644,2023-029N,2026-07-05T06:56:57.394752,13.19725103,.00021353,87.9182,301.3726,109.8071,250.3292,0,U,55808,999,16129,.16827828E-3,.8E-6,0
ONEWEB-0645,2023-029P,2026-07-05T07:28:47.770464,13.19725554,.000173,87.9183,301.3651,113.8600,246.2715,0,U,55809,999,16129,.12619476E-3,.63E-6,0
ONEWEB-0646,2023-029Q,2026-07-05T07:53:48.764832,13.19726813,.00021204,87.9184,301.3619,108.5829,251.5534,0,U,55810,999,16128,.29510365E-3,.131E-5,0
ONEWEB-0648,2023-029R,2026-07-05T07:18:32.017536,13.14503223,.0001967,87.8973,286.0938,127.6418,232.4891,0,U,55811,999,16177,-.34545879E-3,-.115E-5,0
ONEWEB-0649,2023-029S,2026-07-05T06:41:01.137696,13.19725896,.00018679,87.9181,301.3699,108.7814,251.3522,0,U,55812,999,16131,.33209573E-3,.146E-5,0
ONEWEB-0650,2023-029T,2026-07-05T08:23:22.301088,13.19725663,.00022179,87.9183,301.3583,116.7993,243.3367,0,U,55813,999,16129,.30844236E-3,.136E-5,0
ONEWEB-0652,2023-029U,2026-07-05T06:51:07.746048,13.14502362,.0002047,87.8972,286.1042,95.8642,264.2721,0,U,55814,999,16174,.22829662E-3,.97E-6,0
ONEWEB-0653,2023-029V,2026-07-05T06:28:17.110272,13.14501911,.00019111,87.8970,286.1056,99.1009,261.0337,0,U,55815,999,16177,.5284437E-3,.209E-5,0
ONEWEB-0654,2023-029W,2026-07-05T08:11:02.595264,13.14501594,.00019273,87.8971,286.0874,89.8682,270.2668,0,U,55816,999,16180,.72870723E-3,.283E-5,0
ONEWEB-0656,2023-029X,2026-07-05T05:37:41.043648,13.20769679,.00020516,87.9195,270.8342,86.9806,273.1562,0,U,55817,999,16353,.31040225E-4,.26E-6,0
ONEWEB-0657,2023-029Y,2026-07-05T08:16:33.934944,13.19726093,.00025473,87.9184,301.3578,91.1845,268.9580,0,U,55818,999,16130,.2410705E-3,.109E-5,0
ONEWEB-0658,2023-029Z,2026-07-05T08:09:44.648640,13.19725955,.00021393,87.9193,301.3360,111.0416,249.0945,0,U,55819,999,16131,.23461801E-3,.107E-5,0
ONEWEB-0660,2023-029AA,2026-07-05T07:39:04.136832,13.14502349,.00017369,87.8982,286.0869,107.7061,252.4259,0,U,55820,999,16178,-.38455907E-3,-.13E-5,0
ONEWEB-0661,2023-029AB,2026-07-05T06:39:43.101216,13.14502499,.00016878,87.8964,286.1367,103.7448,256.3870,0,U,55821,999,16176,.54310792E-3,.214E-5,0
ONEWEB-0662,2023-029AC,2026-07-05T07:29:57.021792,13.14502083,.00017661,87.8960,286.1355,107.6550,252.4773,0,U,55822,999,16181,-.45236464E-3,-.155E-5,0
ONEWEB-0663,2023-029AD,2026-07-05T06:24:18.316224,13.20870763,.00019216,87.9196,270.8987,111.6803,248.4535,0,U,55823,999,16353,.68977906E-4,.41E-6,0
ONEWEB-0664,2023-029AE,2026-07-05T07:07:25.175424,13.20771426,.00015468,87.9180,270.8723,96.5899,263.5411,0,U,55824,999,16353,.10935815E-3,.57E-6,0
ONEWEB-0665,2023-029AF,2026-07-05T06:35:08.888352,13.14502484,.00018957,87.8964,286.1176,111.9904,248.1427,0,U,55825,999,16178,.66541135E-3,.259E-5,0
ONEWEB-0666,2023-029AG,2026-07-05T05:08:36.980160,13.20772167,.00026527,87.9184,270.8786,91.0076,269.1361,0,U,55826,999,16353,-.12288133E-4,.8E-7,0
ONEWEB-0667,2023-029AH,2026-07-05T06:50:26.063232,13.20772527,.0001878,87.9200,270.8251,101.6529,258.4816,0,U,55827,999,16353,-.3674089E-5,.11E-6,0
